[{"OBJECT_NAME":"RESOURCESAT-2","OBJECT_ID":"2011-015A","EPOCH":"2026-03-09T22:09:34.808256","MEAN_MOTION":14.21500709,"ECCENTRICITY":0.00064275,"INCLINATION":98.7721,"RA_OF_ASC_NODE":137.0095,"ARG_OF_PERICENTER":138.2632,"MEAN_ANOMALY":221.9036,"EPHEMERIS_TYPE":0,"CLASSIFICATION_TYPE":"U","NORAD_CAT_ID":37387,"ELEMENT_SET_NO":999,"REV_AT_EPOCH":77207,"BSTAR":-7.3226423e-5,"MEAN_MOTION_DOT":-2.05e-6,"MEAN_MOTION_DDOT":0},{"OBJECT_NAME":"DELTA 1 DEB","OBJECT_ID":"1972-058JW","EPOCH":"2026-03-08T07:13:47.468640","MEAN_MOTION":13.75039875,"ECCENTRICITY":0.02474804,"INCLINATION":98.8192,"RA_OF_ASC_NODE":193.9151,"ARG_OF_PERICENTER":328.1294,"MEAN_ANOMALY":30.5083,"EPHEMERIS_TYPE":0,"CLASSIFICATION_TYPE":"U","NORAD_CAT_ID":42563,"ELEMENT_SET_NO":999,"REV_AT_EPOCH":60984,"BSTAR":0.00036547818,"MEAN_MOTION_DOT":3.95e-6,"MEAN_MOTION_DDOT":0}]
